{"type": "FeatureCollection", "features": [ {"type": "Feature", "properties": {"norad_id": 29930, "name": "FENGYUN 1C DEB", "group": "fengyun-1c-debris", "lat": 8.564427832458888, "lon": 47.00396229590753, "alt_km": 859.9877064165494, "timestamp": "2025-12-09T11:33:55.072214+00:00", "meta": {"OBJECT_NAME": "FENGYUN 1C DEB", "OBJECT_ID": "1999-025JC", "EPOCH": "2025-12-08T16:29:44.554272", "MEAN_MOTION": 14.2081053, "ECCENTRICITY": 0.01646292, "INCLINATION": 99.0445, "RA_OF_ASC_NODE": 224.8162, "ARG_OF_PERICENTER": 65.0829, "MEAN_ANOMALY": 2.4596, "EPHEMERIS_TYPE": 0, "CLASSIFICATION_TYPE": "U", "NORAD_CAT_ID": 29930, "ELEMENT_SET_NO": 999, "REV_AT_EPOCH": 97833, "BSTAR": 0.00042389468, "MEAN_MOTION_DOT": 1.003e-05, "MEAN_MOTION_DDOT": 0}, "tle": {"line1": "1 29930U 99025JC  25342.68732123  .00001003  00000+0  42389-3 0  9998", "line2": "2 29930  99.0445 224.8162 0164629  65.0829   2.4596 14.20810530978339"}}, "geometry": {"type": "Point", "coordinates": [47.00396229590753, 8.564427832458888]}}, {"type": "Feature", "properties": {"norad_id": 29931, "name": "FENGYUN 1C DEB", "group": "fengyun-1c-debris", "lat": 8.760001987364927, "lon": 17.495817236619633, "alt_km": 883.4031723417902, "timestamp": "2025-12-09T11:33:55.072224+00:00", "meta": {"OBJECT_NAME": "FENGYUN 1C DEB", "OBJECT_ID": "1999-025JD", "EPOCH": "2025-12-09T01:31:19.968384", "MEAN_MOTION": 14.03889532, "ECCENTRICITY": 0.0032632, "INCLINATION": 98.8598, "RA_OF_ASC_NODE": 18.4652, "ARG_OF_PERICENTER": 103.6464, "MEAN_ANOMALY": 311.9683, "EPHEMERIS_TYPE": 0, "CLASSIFICATION_TYPE": "U", "NORAD_CAT_ID": 29931, "ELEMENT_SET_NO": 999, "REV_AT_EPOCH": 96761, "BSTAR": 0.00018995, "MEAN_MOTION_DOT": 2.58e-06, "MEAN_MOTION_DDOT": 0}, "tle": {"line1": "1 29931U 99025JD  25343.06342556  .00000258  00000+0  18995-3 0  9996", "line2": "2 29931  98.8598  18.4652 0032632 103.6464 311.9683 14.03889532967612"}}, "geometry": {"type": "Point", "coordinates": [17.495817236619633, 8.760001987364927]}}, {"type": "Feature", "properties": {"norad_id": 29932, "name": "FENGYUN 1C DEB", "group": "fengyun-1c-debris", "lat": -48.567051605760135, "lon": 4.176187197351452, "alt_km": 860.501238085395, "timestamp": "2025-12-09T11:33:55.072234+00:00", "meta": {"OBJECT_NAME": "FENGYUN 1C DEB", "OBJECT_ID": "1999-025JE", "EPOCH": "2025-12-08T07:04:36.613344", "MEAN_MOTION": 14.16755357, "ECCENTRICITY": 0.0038621, "INCLINATION": 98.6342, "RA_OF_ASC_NODE": 353.1117, "ARG_OF_PERICENTER": 82.8541, "MEAN_ANOMALY": 297.4832, "EPHEMERIS_TYPE": 0, "CLASSIFICATION_TYPE": "U", "NORAD_CAT_ID": 29932, "ELEMENT_SET_NO": 999, "REV_AT_EPOCH": 97521, "BSTAR": 0.00050621811, "MEAN_MOTION_DOT": 9.78e-06, "MEAN_MOTION_DDOT": 0}, "tle": {"line1": "1 29932U 99025JE  25342.29486821  .00000978  00000+0  50622-3 0  9997", "line2": "2 29932  98.6342 353.1117 0038621  82.8541 297.4832 14.16755357975211"}}, "geometry": {"type": "Point", "coordinates": [4.176187197351452, -48.567051605760135]}}, {"type": "Feature", "properties": {"norad_id": 29933, "name": "FENGYUN 1C DEB", "group": "fengyun-1c-debris", "lat": 4.009584025744757, "lon": -92.9101244689708, "alt_km": 680.1371195019756, "timestamp": "2025-12-09T11:33:55.072244+00:00", "meta": {"OBJECT_NAME": "FENGYUN 1C DEB", "OBJECT_ID": "1999-025JF", "EPOCH": "2025-12-09T03:07:14.053728", "MEAN_MOTION": 14.65665314, "ECCENTRICITY": 0.0004101, "INCLINATION": 98.7494, "RA_OF_ASC_NODE": 86.0969, "ARG_OF_PERICENTER": 343.2074, "MEAN_ANOMALY": 137.1358, "EPHEMERIS_TYPE": 0, "CLASSIFICATION_TYPE": "U", "NORAD_CAT_ID": 29933, "ELEMENT_SET_NO": 999, "REV_AT_EPOCH": 98452, "BSTAR": 0.0043072, "MEAN_MOTION_DOT": 0.00023451, "MEAN_MOTION_DDOT": 0}, "tle": {"line1": "1 29933U 99025JF  25343.13002377  .00023451  00000+0  43072-2 0  9993", "line2": "2 29933  98.7494  86.0969 0004101 343.2074 137.1358 14.65665314984523"}}, "geometry": {"type": "Point", "coordinates": [-92.9101244689708, 4.009584025744757]}}, {"type": "Feature", "properties": {"norad_id": 29934, "name": "FENGYUN 1C DEB", "group": "fengyun-1c-debris", "lat": 50.402564090372714, "lon": -138.98757884947108, "alt_km": 725.1621071378386, "timestamp": "2025-12-09T11:33:55.072254+00:00", "meta": {"OBJECT_NAME": "FENGYUN 1C DEB", "OBJECT_ID": "1999-025JG", "EPOCH": "2025-12-09T02:46:02.688096", "MEAN_MOTION": 14.63733355, "ECCENTRICITY": 0.0100607, "INCLINATION": 98.9039, "RA_OF_ASC_NODE": 29.6919, "ARG_OF_PERICENTER": 263.4766, "MEAN_ANOMALY": 95.4972, "EPHEMERIS_TYPE": 0, "CLASSIFICATION_TYPE": "U", "NORAD_CAT_ID": 29934, "ELEMENT_SET_NO": 999, "REV_AT_EPOCH": 99719, "BSTAR": 0.0010287, "MEAN_MOTION_DOT": 5.709e-05, "MEAN_MOTION_DDOT": 0}, "tle": {"line1": "1 29934U 99025JG  25343.11530889  .00005709  00000+0  10287-2 0  9994", "line2": "2 29934  98.9039  29.6919 0100607 263.4766  95.4972 14.63733355997192"}}, "geometry": {"type": "Point", "coordinates": [-138.98757884947108, 50.402564090372714]}}, {"type": "Feature", "properties": {"norad_id": 29935, "name": "FENGYUN 1C DEB", "group": "fengyun-1c-debris", "lat": 65.4472552370509, "lon": -115.13141447006058, "alt_km": 878.5139343287956, "timestamp": "2025-12-09T11:33:55.072264+00:00", "meta": {"OBJECT_NAME": "FENGYUN 1C DEB", "OBJECT_ID": "1999-025JH", "EPOCH": "2025-12-09T04:31:57.929088", "MEAN_MOTION": 14.1423514, "ECCENTRICITY": 0.0150023, "INCLINATION": 98.4619, "RA_OF_ASC_NODE": 45.5732, "ARG_OF_PERICENTER": 226.3913, "MEAN_ANOMALY": 197.287, "EPHEMERIS_TYPE": 0, "CLASSIFICATION_TYPE": "U", "NORAD_CAT_ID": 29935, "ELEMENT_SET_NO": 999, "REV_AT_EPOCH": 97492, "BSTAR": 0.00017468, "MEAN_MOTION_DOT": 3.3e-06, "MEAN_MOTION_DDOT": 0}, "tle": {"line1": "1 29935U 99025JH  25343.18886492  .00000330  00000+0  17468-3 0  9990", "line2": "2 29935  98.4619  45.5732 0150023 226.3913 197.2870 14.14235140974920"}}, "geometry": {"type": "Point", "coordinates": [-115.13141447006058, 65.4472552370509]}}, {"type": "Feature", "properties": {"norad_id": 29936, "name": "FENGYUN 1C DEB", "group": "fengyun-1c-debris", "lat": -81.14550835125559, "lon": -161.077506090436, "alt_km": 754.6668130439684, "timestamp": "2025-12-09T11:33:55.072274+00:00", "meta": {"OBJECT_NAME": "FENGYUN 1C DEB", "OBJECT_ID": "1999-025JJ", "EPOCH": "2025-12-08T20:56:19.724064", "MEAN_MOTION": 14.35303456, "ECCENTRICITY": 0.0113786, "INCLINATION": 98.6562, "RA_OF_ASC_NODE": 96.2401, "ARG_OF_PERICENTER": 198.4988, "MEAN_ANOMALY": 161.2044, "EPHEMERIS_TYPE": 0, "CLASSIFICATION_TYPE": "U", "NORAD_CAT_ID": 29936, "ELEMENT_SET_NO": 999, "REV_AT_EPOCH": 98875, "BSTAR": 0.00034382, "MEAN_MOTION_DOT": 1.013e-05, "MEAN_MOTION_DDOT": 0}, "tle": {"line1": "1 29936U 99025JJ  25342.87245051  .00001013  00000+0  34382-3 0  9999", "line2": "2 29936  98.6562  96.2401 0113786 198.4988 161.2044 14.35303456988751"}}, "geometry": {"type": "Point", "coordinates": [-161.077506090436, -81.14550835125559]}}, {"type": "Feature", "properties": {"norad_id": 29937, "name": "FENGYUN 1C DEB", "group": "fengyun-1c-debris", "lat": 9.218562569581097, "lon": 3.1565015180680107, "alt_km": 858.3446677633801, "timestamp": "2025-12-09T11:33:55.072285+00:00", "meta": {"OBJECT_NAME": "FENGYUN 1C DEB", "OBJECT_ID": "1999-025JK", "EPOCH": "2025-12-09T01:22:36.399072", "MEAN_MOTION": 14.04360393, "ECCENTRICITY": 0.0032485, "INCLINATION": 98.8032, "RA_OF_ASC_NODE": 4.1862, "ARG_OF_PERICENTER": 31.7592, "MEAN_ANOMALY": 352.7528, "EPHEMERIS_TYPE": 0, "CLASSIFICATION_TYPE": "U", "NORAD_CAT_ID": 29937, "ELEMENT_SET_NO": 999, "REV_AT_EPOCH": 96884, "BSTAR": 0.00014735, "MEAN_MOTION_DOT": 1.93e-06, "MEAN_MOTION_DDOT": 0}, "tle": {"line1": "1 29937U 99025JK  25343.05736573  .00000193  00000+0  14735-3 0  9993", "line2": "2 29937  98.8032   4.1862 0032485  31.7592 352.7528 14.04360393968842"}}, "geometry": {"type": "Point", "coordinates": [3.1565015180680107, 9.218562569581097]}}, {"type": "Feature", "properties": {"norad_id": 29938, "name": "FENGYUN 1C DEB", "group": "fengyun-1c-debris", "lat": -75.78886164140674, "lon": 115.85763565608002, "alt_km": 863.8639248610962, "timestamp": "2025-12-09T11:33:55.072296+00:00", "meta": {"OBJECT_NAME": "FENGYUN 1C DEB", "OBJECT_ID": "1999-025JL", "EPOCH": "2025-12-08T22:38:54.865248", "MEAN_MOTION": 14.07454676, "ECCENTRICITY": 0.0033025, "INCLINATION": 98.8021, "RA_OF_ASC_NODE": 333.0553, "ARG_OF_PERICENTER": 321.664, "MEAN_ANOMALY": 92.0042, "EPHEMERIS_TYPE": 0, "CLASSIFICATION_TYPE": "U", "NORAD_CAT_ID": 29938, "ELEMENT_SET_NO": 999, "REV_AT_EPOCH": 97003, "BSTAR": 0.00017841, "MEAN_MOTION_DOT": 2.59e-06, "MEAN_MOTION_DDOT": 0}, "tle": {"line1": "1 29938U 99025JL  25342.94369057  .00000259  00000+0  17841-3 0  9994", "line2": "2 29938  98.8021 333.0553 0033025 321.6640  92.0042 14.07454676970038"}}, "geometry": {"type": "Point", "coordinates": [115.85763565608002, -75.78886164140674]}}, {"type": "Feature", "properties": {"norad_id": 29939, "name": "FENGYUN 1C DEB", "group": "fengyun-1c-debris", "lat": -16.083094733362216, "lon": 160.62947739036466, "alt_km": 824.7714916728191, "timestamp": "2025-12-09T11:33:55.072307+00:00", "meta": {"OBJECT_NAME": "FENGYUN 1C DEB", "OBJECT_ID": "1999-025JM", "EPOCH": "2025-12-08T23:01:46.848000", "MEAN_MOTION": 14.12083491, "ECCENTRICITY": 0.0066794, "INCLINATION": 98.7097, "RA_OF_ASC_NODE": 342.6552, "ARG_OF_PERICENTER": 149.1996, "MEAN_ANOMALY": 272.6738, "EPHEMERIS_TYPE": 0, "CLASSIFICATION_TYPE": "U", "NORAD_CAT_ID": 29939, "ELEMENT_SET_NO": 999, "REV_AT_EPOCH": 97407, "BSTAR": 8.1654e-05, "MEAN_MOTION_DOT": 1.11e-06, "MEAN_MOTION_DDOT": 0}, "tle": {"line1": "1 29939U 99025JM  25342.95957000  .00000111  00000+0  81654-4 0  9998", "line2": "2 29939  98.7097 342.6552 0066794 149.1996 272.6738 14.12083491974077"}}, "geometry": {"type": "Point", "coordinates": [160.62947739036466, -16.083094733362216]}}]}